[
    {
        "CCSDS_OMM_VERS": "3.0",
        "COMMENT": "GENERATED VIA SPACE-TRACK.ORG API",
        "CREATION_DATE": "2025-04-09T03:13:42",
        "ORIGINATOR": "18 SPCS",
        "OBJECT_NAME": "BEIDOU IGSO-7",
        "OBJECT_ID": "2018-057A",
        "CENTER_NAME": "EARTH",
        "REF_FRAME": "TEME",
        "TIME_SYSTEM": "UTC",
        "MEAN_ELEMENT_THEORY": "SGP4",
        "EPOCH": "2025-04-08T19:50:20.915808",
        "MEAN_MOTION": "1.00278306",
        "ECCENTRICITY": "0.00874170",
        "INCLINATION": "55.1567",
        "RA_OF_ASC_NODE": "166.8230",
        "ARG_OF_PERICENTER": "235.7847",
        "MEAN_ANOMALY": "205.5705",
        "EPHEMERIS_TYPE": "0",
        "CLASSIFICATION_TYPE": "U",
        "NORAD_CAT_ID": "43539",
        "ELEMENT_SET_NO": "999",
        "REV_AT_EPOCH": "2477",
        "BSTAR": "0.00000000000000",
        "MEAN_MOTION_DOT": "-0.00000134",
        "MEAN_MOTION_DDOT": "0.0000000000000",
        "SEMIMAJOR_AXIS": "42162.904",
        "PERIOD": "1436.004",
        "APOAPSIS": "36153.344",
        "PERIAPSIS": "35416.194",
        "OBJECT_TYPE": "PAYLOAD",
        "RCS_SIZE": "LARGE",
        "COUNTRY_CODE": "PRC",
        "LAUNCH_DATE": "2018-07-09",
        "SITE": "XSC",
        "DECAY_DATE": null,
        "FILE": "4695033",
        "GP_ID": "285154761",
        "TLE_LINE0": "0 BEIDOU IGSO-7",
        "TLE_LINE1": "1 43539U 18057A   25098.82663097 -.00000134  00000-0  00000-0 0  9999",
        "TLE_LINE2": "2 43539  55.1567 166.8230 0087417 235.7847 205.5705  1.00278306 24775"
    }
]